{
  "norad_id": 48859,
  "name": "NAVSTAR 81 (USA 319)",
  "history": [
    {
      "epoch": "2026-03-26T22:14:18.259008",
      "apogee_km": 20244.59416478292,
      "perigee_km": 20117.99226639706,
      "latitude_deg": -14.850480286324942,
      "longitude_deg": 42.85362111986615,
      "semi_major_axis_km": 26559.43021558999,
      "eccentricity": 0.00238337,
      "inclination_deg": 55.2106,
      "raan_deg": 335.7679,
      "arg_perigee_deg": 231.2619,
      "mean_anomaly_deg": 258.626,
      "mean_motion_rev_day": 2.00573998
    }
  ]
}